[
    {
        "Altitude(m)": 557738.635465635,
        "Argument of Periapsis(deg)": 0.033114955553567506,
        "Eccentricity": 0.0,
        "Inclination(deg)": 53.0,
        "Latitude(deg)": 43.66533828948211,
        "Longitude(deg)": 116.6801764293026,
        "Mean Anomaly(deg)": 59.548964337887945,
        "RAAN(deg)": 174.9507168426401,
        "Satellite Name": "Starlink Shell 1 770",
        "Satellite Number": 770,
        "Semi-Major Axis(m)": 6931778.249405717,
        "Time(s)": 950
    },
    {
        "Altitude(m)": 557816.3977540878,
        "Argument of Periapsis(deg)": 0.03346353403307874,
        "Eccentricity": 0.0,
        "Inclination(deg)": 53.0,
        "Latitude(deg)": 44.01360173596818,
        "Longitude(deg)": 117.36047187783694,
        "Mean Anomaly(deg)": 60.175795541444664,
        "RAAN(deg)": 174.9501980725626,
        "Satellite Name": "Starlink Shell 1 770",
        "Satellite Number": 770,
        "Semi-Major Axis(m)": 6931778.249405717,
        "Time(s)": 960
    },
    {
        "Altitude(m)": 557893.367061752,
        "Argument of Periapsis(deg)": 0.03381211251258998,
        "Eccentricity": 0.0,
        "Inclination(deg)": 53.0,
        "Latitude(deg)": 44.35723459660257,
        "Longitude(deg)": 118.0491976240588,
        "Mean Anomaly(deg)": 60.80262674500136,
        "RAAN(deg)": 174.94967930248515,
        "Satellite Name": "Starlink Shell 1 770",
        "Satellite Number": 770,
        "Semi-Major Axis(m)": 6931778.249405717,
        "Time(s)": 970
    },
    {
        "Altitude(m)": 557969.4950442384,
        "Argument of Periapsis(deg)": 0.034160690992101214,
        "Eccentricity": 0.0,
        "Inclination(deg)": 53.0,
        "Latitude(deg)": 44.69612782162518,
        "Longitude(deg)": 118.74643836373579,
        "Mean Anomaly(deg)": 61.42945794855808,
        "RAAN(deg)": 174.94916053240766,
        "Satellite Name": "Starlink Shell 1 770",
        "Satellite Number": 770,
        "Semi-Major Axis(m)": 6931778.249405717,
        "Time(s)": 980
    },
    {
        "Altitude(m)": 558044.7339924887,
        "Argument of Periapsis(deg)": 0.034509269471612446,
        "Eccentricity": 0.0,
        "Inclination(deg)": 53.0,
        "Latitude(deg)": 45.030170680257925,
        "Longitude(deg)": 119.45227407604494,
        "Mean Anomaly(deg)": 62.0562891521148,
        "RAAN(deg)": 174.94864176233023,
        "Satellite Name": "Starlink Shell 1 770",
        "Satellite Number": 770,
        "Semi-Major Axis(m)": 6931778.249405717,
        "Time(s)": 990
    }
]